DISKSAT B               
1 67220U 25305B   26016.11193089  .00005817  00000+0  40497-3 0  9996
2 67220  45.0015 168.8959 0001413  42.8908 317.2077 15.06348309  4369
DISKSAT D               
1 67221U 25305C   26016.11276263  .00005694  00000+0  39706-3 0  9997
2 67221  45.0016 168.9024 0001812  53.0747 307.0294 15.06315601  4360
DISKSAT A               
1 67222U 25305D   26016.11397714  .00007493  00000+0  51773-3 0  9990
2 67222  45.0017 168.9112 0001768  63.8855 296.2201 15.06286061  4352
ELECTRON KICK STAGE R/B 
1 67223U 25305E   26016.11300553  .00088759  10595-4  75811-3 0  9994
2 67223  44.9844 157.9770 0161442 307.5123  51.1189 15.54146510  4494
TJS-23                  
1 67226U 25306A   26015.02369839  .00000044  00000+0  00000+0 0  9999
2 67226   5.9360 298.2773 0000584  63.5446 296.6765  1.00270234   359
CZ-5 R/B                
1 67227U 25306B   26015.69896012  .00007182  00000+0  19860-2 0  9998
2 67227  16.2657 290.3526 7577747 195.0766 113.4984  1.92547339   528
QPS-SAR-15              
1 67228U 25307A   26016.31509959  .00003509  00000+0  31216-3 0  9990
2 67228  42.0087 340.9868 0007694  79.1450 281.0241 14.97377730  3906
ELECTRON R/B            
1 67229U 25307B   26016.20981683  .01034186  78292-5  15227-2 0  9990
2 67229  41.9913 325.0979 0131086  68.6183 292.8605 15.89656510  4070
ELECTRON KICK STAGE R/B 
1 67230U 25307C   26016.09048044  .18058906  85429-5  45823-3 0  9994
2 67230  41.9939 323.2498 0017238 116.5376 243.7271 16.44299347  2485
SPACEMOBILE-006         
1 67232U 25309A   26016.29774082 -.00000463  00000+0 -69258-5 0  9992
2 67232  52.9984 306.9011 0012123  32.7216 327.4526 15.17742652  3528
LVM3 R/B                
1 67233U 25309B   26016.27022034  .00005749  00000+0  28037-3 0  9992
2 67233  52.9290 306.4840 0011860  57.5572 302.6566 15.19691352  3522
2025-310A               
1 67234U 25310A   26014.72283539  .00000009  00000+0  86937-5 0  9991
2 67234  97.9664  24.2349 0001912 179.1290 180.9923 14.75705364  2995
