CCSDS_OMM_VERS = 2.0
CREATION_DATE  = 
ORIGINATOR     = 

OBJECT_NAME    = DISKSAT B
OBJECT_ID      = 2025-305B
CENTER_NAME    = EARTH
REF_FRAME      = TEME
TIME_SYSTEM    = UTC
MEAN_ELEMENT_THEORY = SGP/SGP4

EPOCH          = 2026-01-16T02:41:10.828896
MEAN_MOTION    = 15.06348309
ECCENTRICITY   = .00014139
INCLINATION    = 45.0015
RA_OF_ASC_NODE = 168.8959
ARG_OF_PERICENTER = 42.8908
MEAN_ANOMALY   = 317.2077

EPHEMERIS_TYPE = 0
CLASSIFICATION_TYPE = U
NORAD_CAT_ID   = 67220
ELEMENT_SET_NO = 999
REV_AT_EPOCH   = 436
BSTAR          = .40497269E-3
MEAN_MOTION_DOT = .5817E-4
MEAN_MOTION_DDOT = 0

CCSDS_OMM_VERS = 2.0
CREATION_DATE  = 
ORIGINATOR     = 

OBJECT_NAME    = DISKSAT D
OBJECT_ID      = 2025-305C
CENTER_NAME    = EARTH
REF_FRAME      = TEME
TIME_SYSTEM    = UTC
MEAN_ELEMENT_THEORY = SGP/SGP4

EPOCH          = 2026-01-16T02:42:22.691232
MEAN_MOTION    = 15.06315601
ECCENTRICITY   = .00018126
INCLINATION    = 45.0016
RA_OF_ASC_NODE = 168.9024
ARG_OF_PERICENTER = 53.0747
MEAN_ANOMALY   = 307.0294

EPHEMERIS_TYPE = 0
CLASSIFICATION_TYPE = U
NORAD_CAT_ID   = 67221
ELEMENT_SET_NO = 999
REV_AT_EPOCH   = 436
BSTAR          = .39705763E-3
MEAN_MOTION_DOT = .5694E-4
MEAN_MOTION_DDOT = 0

CCSDS_OMM_VERS = 2.0
CREATION_DATE  = 
ORIGINATOR     = 

OBJECT_NAME    = DISKSAT A
OBJECT_ID      = 2025-305D
CENTER_NAME    = EARTH
REF_FRAME      = TEME
TIME_SYSTEM    = UTC
MEAN_ELEMENT_THEORY = SGP/SGP4

EPOCH          = 2026-01-16T02:44:07.624896
MEAN_MOTION    = 15.06286061
ECCENTRICITY   = .00017685
INCLINATION    = 45.0017
RA_OF_ASC_NODE = 168.9112
ARG_OF_PERICENTER = 63.8855
MEAN_ANOMALY   = 296.2201

EPHEMERIS_TYPE = 0
CLASSIFICATION_TYPE = U
NORAD_CAT_ID   = 67222
ELEMENT_SET_NO = 999
REV_AT_EPOCH   = 435
BSTAR          = .51773242E-3
MEAN_MOTION_DOT = .7493E-4
MEAN_MOTION_DDOT = 0

CCSDS_OMM_VERS = 2.0
CREATION_DATE  = 
ORIGINATOR     = 

OBJECT_NAME    = ELECTRON KICK STAGE R/B
OBJECT_ID      = 2025-305E
CENTER_NAME    = EARTH
REF_FRAME      = TEME
TIME_SYSTEM    = UTC
MEAN_ELEMENT_THEORY = SGP/SGP4

EPOCH          = 2026-01-16T02:42:43.677792
MEAN_MOTION    = 15.54146510
ECCENTRICITY   = .0161442
INCLINATION    = 44.9844
RA_OF_ASC_NODE = 157.9770
ARG_OF_PERICENTER = 307.5123
MEAN_ANOMALY   = 51.1189

EPHEMERIS_TYPE = 0
CLASSIFICATION_TYPE = U
NORAD_CAT_ID   = 67223
ELEMENT_SET_NO = 999
REV_AT_EPOCH   = 449
BSTAR          = .75810586E-3
MEAN_MOTION_DOT = .88759E-3
MEAN_MOTION_DDOT = .1059532E-4

CCSDS_OMM_VERS = 2.0
CREATION_DATE  = 
ORIGINATOR     = 

OBJECT_NAME    = TJS-23
OBJECT_ID      = 2025-306A
CENTER_NAME    = EARTH
REF_FRAME      = TEME
TIME_SYSTEM    = UTC
MEAN_ELEMENT_THEORY = SGP/SGP4

EPOCH          = 2026-01-15T00:34:07.540896
MEAN_MOTION    = 1.00270234
ECCENTRICITY   = .00005842
INCLINATION    = 5.9360
RA_OF_ASC_NODE = 298.2773
ARG_OF_PERICENTER = 63.5446
MEAN_ANOMALY   = 296.6765

EPHEMERIS_TYPE = 0
CLASSIFICATION_TYPE = U
NORAD_CAT_ID   = 67226
ELEMENT_SET_NO = 999
REV_AT_EPOCH   = 35
BSTAR          = 0
MEAN_MOTION_DOT = .44E-6
MEAN_MOTION_DDOT = 0

CCSDS_OMM_VERS = 2.0
CREATION_DATE  = 
ORIGINATOR     = 

OBJECT_NAME    = CZ-5 R/B
OBJECT_ID      = 2025-306B
CENTER_NAME    = EARTH
REF_FRAME      = TEME
TIME_SYSTEM    = UTC
MEAN_ELEMENT_THEORY = SGP/SGP4

EPOCH          = 2026-01-15T16:46:30.154368
MEAN_MOTION    = 1.92547339
ECCENTRICITY   = .75777471
INCLINATION    = 16.2657
RA_OF_ASC_NODE = 290.3526
ARG_OF_PERICENTER = 195.0766
MEAN_ANOMALY   = 113.4984

EPHEMERIS_TYPE = 0
CLASSIFICATION_TYPE = U
NORAD_CAT_ID   = 67227
ELEMENT_SET_NO = 999
REV_AT_EPOCH   = 52
BSTAR          = .19859787E-2
MEAN_MOTION_DOT = .7182E-4
MEAN_MOTION_DDOT = 0

CCSDS_OMM_VERS = 2.0
CREATION_DATE  = 
ORIGINATOR     = 

OBJECT_NAME    = QPS-SAR-15
OBJECT_ID      = 2025-307A
CENTER_NAME    = EARTH
REF_FRAME      = TEME
TIME_SYSTEM    = UTC
MEAN_ELEMENT_THEORY = SGP/SGP4

EPOCH          = 2026-01-16T07:33:44.604576
MEAN_MOTION    = 14.97377730
ECCENTRICITY   = .00076946
INCLINATION    = 42.0087
RA_OF_ASC_NODE = 340.9868
ARG_OF_PERICENTER = 79.1450
MEAN_ANOMALY   = 281.0241

EPHEMERIS_TYPE = 0
CLASSIFICATION_TYPE = U
NORAD_CAT_ID   = 67228
ELEMENT_SET_NO = 999
REV_AT_EPOCH   = 390
BSTAR          = .31216274E-3
MEAN_MOTION_DOT = .3509E-4
MEAN_MOTION_DDOT = 0

CCSDS_OMM_VERS = 2.0
CREATION_DATE  = 
ORIGINATOR     = 

OBJECT_NAME    = ELECTRON R/B
OBJECT_ID      = 2025-307B
CENTER_NAME    = EARTH
REF_FRAME      = TEME
TIME_SYSTEM    = UTC
MEAN_ELEMENT_THEORY = SGP/SGP4

EPOCH          = 2026-01-16T05:02:08.174112
MEAN_MOTION    = 15.89656510
ECCENTRICITY   = .01310869
INCLINATION    = 41.9913
RA_OF_ASC_NODE = 325.0979
ARG_OF_PERICENTER = 68.6183
MEAN_ANOMALY   = 292.8605

EPHEMERIS_TYPE = 0
CLASSIFICATION_TYPE = U
NORAD_CAT_ID   = 67229
ELEMENT_SET_NO = 999
REV_AT_EPOCH   = 407
BSTAR          = .15226678E-2
MEAN_MOTION_DOT = .1034186E-1
MEAN_MOTION_DDOT = .7829158E-5

CCSDS_OMM_VERS = 2.0
CREATION_DATE  = 
ORIGINATOR     = 

OBJECT_NAME    = ELECTRON KICK STAGE R/B
OBJECT_ID      = 2025-307C
CENTER_NAME    = EARTH
REF_FRAME      = TEME
TIME_SYSTEM    = UTC
MEAN_ELEMENT_THEORY = SGP/SGP4

EPOCH          = 2026-01-16T02:10:17.510016
MEAN_MOTION    = 16.44299347
ECCENTRICITY   = .00172389
INCLINATION    = 41.9939
RA_OF_ASC_NODE = 323.2498
ARG_OF_PERICENTER = 116.5376
MEAN_ANOMALY   = 243.7271

EPHEMERIS_TYPE = 0
CLASSIFICATION_TYPE = U
NORAD_CAT_ID   = 67230
ELEMENT_SET_NO = 999
REV_AT_EPOCH   = 248
BSTAR          = .45823411E-3
MEAN_MOTION_DOT = .18058906E+0
MEAN_MOTION_DDOT = .8542946E-5

CCSDS_OMM_VERS = 2.0
CREATION_DATE  = 
ORIGINATOR     = 

OBJECT_NAME    = SPACEMOBILE-006
OBJECT_ID      = 2025-309A
CENTER_NAME    = EARTH
REF_FRAME      = TEME
TIME_SYSTEM    = UTC
MEAN_ELEMENT_THEORY = SGP/SGP4

EPOCH          = 2026-01-16T07:08:44.806848
MEAN_MOTION    = 15.17742652
ECCENTRICITY   = .00121235
INCLINATION    = 52.9984
RA_OF_ASC_NODE = 306.9011
ARG_OF_PERICENTER = 32.7216
MEAN_ANOMALY   = 327.4526

EPHEMERIS_TYPE = 0
CLASSIFICATION_TYPE = U
NORAD_CAT_ID   = 67232
ELEMENT_SET_NO = 999
REV_AT_EPOCH   = 352
BSTAR          = -.6925796E-5
MEAN_MOTION_DOT = -.463E-5
MEAN_MOTION_DDOT = 0

CCSDS_OMM_VERS = 2.0
CREATION_DATE  = 
ORIGINATOR     = 

OBJECT_NAME    = LVM3 R/B
OBJECT_ID      = 2025-309B
CENTER_NAME    = EARTH
REF_FRAME      = TEME
TIME_SYSTEM    = UTC
MEAN_ELEMENT_THEORY = SGP/SGP4

EPOCH          = 2026-01-16T06:29:07.037376
MEAN_MOTION    = 15.19691352
ECCENTRICITY   = .00118606
INCLINATION    = 52.9290
RA_OF_ASC_NODE = 306.4840
ARG_OF_PERICENTER = 57.5572
MEAN_ANOMALY   = 302.6566

EPHEMERIS_TYPE = 0
CLASSIFICATION_TYPE = U
NORAD_CAT_ID   = 67233
ELEMENT_SET_NO = 999
REV_AT_EPOCH   = 352
BSTAR          = .28036816E-3
MEAN_MOTION_DOT = .5749E-4
MEAN_MOTION_DDOT = 0

CCSDS_OMM_VERS = 2.0
CREATION_DATE  = 
ORIGINATOR     = 

OBJECT_NAME    = 2025-310A
OBJECT_ID      = 2025-310A
CENTER_NAME    = EARTH
REF_FRAME      = TEME
TIME_SYSTEM    = UTC
MEAN_ELEMENT_THEORY = SGP/SGP4

EPOCH          = 2026-01-14T17:20:52.977696
MEAN_MOTION    = 14.75705364
ECCENTRICITY   = .0001912
INCLINATION    = 97.9664
RA_OF_ASC_NODE = 24.2349
ARG_OF_PERICENTER = 179.1290
MEAN_ANOMALY   = 180.9923

EPHEMERIS_TYPE = 0
CLASSIFICATION_TYPE = U
NORAD_CAT_ID   = 67234
ELEMENT_SET_NO = 999
REV_AT_EPOCH   = 299
BSTAR          = .869375E-5
MEAN_MOTION_DOT = .9E-7
MEAN_MOTION_DDOT = 0

